NORAD_CAT_ID,OBJECT_NAME,OBJECT_TYPE,EPOCH,MEAN_MOTION,ECCENTRICITY,INCLINATION,RA_OF_ASC_NODE,ARG_OF_PERICENTER,MEAN_ANOMALY,BSTAR,MEAN_MOTION_DOT,MEAN_MOTION_DDOT,TLE_LINE0,TLE_LINE1,TLE_LINE2,SEMIMAJOR_AXIS,PERIOD,APOGEE,PERIGEE,DECAYED
51128.0,STARLINK-3400,PAYLOAD,2022-09-14 09:29:41,15.08840564,0.0001924,53.216,250.6858,61.7294,298.3892,1.0798e-05,-1.16e-06,0.0,0 STARLINK-3400,1 51128U 22005AA  22257.39561474 -.00000116  00000-0  10798-4 0  9991,2 51128  53.2160 250.6858 0001924  61.7294 298.3892 15.08840564 37771,6917.879,95.438,541.075,538.413,0.0
51128.0,STARLINK-3400,PAYLOAD,2022-09-15 04:34:19,15.08835604,0.0001961,53.2159,247.1175,55.7484,304.3694,-2.5359e-06,-3.29e-06,0.0,0 STARLINK-3400,1 51128U 22005AA  22258.19050032 -.00000329  00000-0 -25359-5 0  9990,2 51128  53.2159 247.1175 0001961  55.7484 304.3694 15.08835604 37897,6917.894,95.438,541.115,538.4019999999998,0.0
51128.0,STARLINK-3400,PAYLOAD,2022-09-15 09:20:28,15.08835473,0.000197,53.2162,246.2255,54.1891,305.9284,-1.3631e-05,-5.05e-06,0.0,0 STARLINK-3400,1 51128U 22005AA  22258.38922099 -.00000505  00000-0 -13631-4 0  9997,2 51128  53.2162 246.2255 0001970  54.1891 305.9284 15.08835473 36801,6917.894,95.438,541.122,538.396,0.0
51128.0,STARLINK-3400,PAYLOAD,2022-09-16 04:25:05,15.08839945,0.0001655,53.2164,242.6568,55.1717,304.9431,6.1013e-05,6.83e-06,0.0,0 STARLINK-3400,1 51128U 22005AA  22259.18409526  .00000683  00000-0  61013-4 0  9993,2 51128  53.2164 242.6568 0001655  55.1717 304.9431 15.08839945 38047,6917.880999999999,95.438,540.89,538.601,0.0
51128.0,STARLINK-3400,PAYLOAD,2022-09-16 07:35:52,15.08834638,0.0001774999999999,53.2158,242.0628,51.2467,308.8684,1.3957e-05,-6.6e-07,0.0,0 STARLINK-3400,1 51128U 22005AA  22259.31658062 -.00000066  00000-0  13957-4 0  9999,2 51128  53.2158 242.0628 0001775  51.2467 308.8684 15.08834638 36947,6917.897,95.438,540.99,538.534,0.0
51128.0,STARLINK-3400,PAYLOAD,2022-09-16 18:43:34,15.0883294,0.0001761,53.2163,239.9815,51.7076,308.4074,5.109e-05,5.25e-06,0.0,0 STARLINK-3400,1 51128U 22005AA  22259.78026210  .00000525  00000-0  51090-4 0  9993,2 51128  53.2163 239.9815 0001761  51.7076 308.4074 15.08832940 37014,6917.901999999999,95.438,540.985,538.549,0.0
51128.0,STARLINK-3400,PAYLOAD,2022-09-17 07:26:40,15.08830729,0.0001823,53.216,237.6021,55.5157,304.6007,2.732300000000001e-05,1.47e-06,0.0,0 STARLINK-3400,1 51128U 22005AA  22260.31018565  .00000147  00000-0  27323-4 0  9990,2 51128  53.2160 237.6021 0001823  55.5157 304.6007 15.08830729 37091,6917.909000000002,95.438,541.035,538.513,0.0
51128.0,STARLINK-3400,PAYLOAD,2022-09-17 15:23:36,15.08828912,0.0001794,53.2157,236.1157,53.2011,306.9146,-3.5264e-05,-8.49e-06,0.0,0 STARLINK-3400,1 51128U 22005AA  22260.64139034 -.00000849  00000-0 -35264-4 0  9995,2 51128  53.2157 236.1157 0001794  53.2011 306.9146 15.08828912 38262,6917.9140000000025,95.438,541.02,538.538,0.0
51128.0,STARLINK-3400,PAYLOAD,2022-09-18 07:17:27,15.08833004,0.000188,53.2162,233.1416,53.3803,306.7362,8.1273e-05,1.005e-05,0.0,0 STARLINK-3400,1 51128U 22005AA  22261.30378731  .00001005  00000-0  81273-4 0  9992,2 51128  53.2162 233.1416 0001880  53.3803 306.7362 15.08833004 37242,6917.901999999999,95.438,541.067,538.466,0.0
51128.0,STARLINK-3400,PAYLOAD,2022-09-18 21:35:55,15.08841065,0.0001904,53.2159,230.4653,59.2264,300.8915,6.4619e-05,7.400000000000001e-06,0.0,0 STARLINK-3400,1 51128U 22005AA  22261.89994413  .00000740  00000-0  64619-4 0  9997,2 51128  53.2159 230.4653 0001904  59.2264 300.8915 15.08841065 37339,6917.877,95.437,541.059,538.425,0.0
51128.0,STARLINK-3400,PAYLOAD,2022-09-19 08:43:37,15.08835432,0.0001807,53.2164,228.3831,57.1267,302.9898,-1.4049e-05,-5.12e-06,0.0,0 STARLINK-3400,1 51128U 22005AA  22262.36363118 -.00000512  00000-0 -14049-4 0  9993,2 51128  53.2164 228.3831 0001807  57.1267 302.9898 15.08835432 37403,6917.894,95.438,541.009,538.509,0.0
51128.0,STARLINK-3400,PAYLOAD,2022-09-19 21:26:42,15.08837087,0.0001875999999999,53.2167,226.0046,56.5151,303.6021,8.727799999999999e-05,1.101e-05,0.0,0 STARLINK-3400,1 51128U 22005AA  22262.89354907  .00001101  00000-0  87278-4 0  9994,2 51128  53.2167 226.0046 0001876  56.5151 303.6021 15.08837087 37482,6917.889,95.438,541.052,538.456,0.0
51128.0,STARLINK-3400,PAYLOAD,2022-09-20 06:59:01,15.08844122,0.0001855,53.2165,224.2204,54.3548,305.7616,9.0804e-05,1.157e-05,0.0,0 STARLINK-3400,1 51128U 22005AA  22263.29098410  .00001157  00000-0  90804-4 0  9993,2 51128  53.2165 224.2204 0001855  54.3548 305.7616 15.08844122 37547,6917.868,95.437,541.016,538.45,0.0
51128.0,STARLINK-3400,PAYLOAD,2022-09-21 06:49:48,15.08839753,0.0001844,53.2165,219.7599,57.9633,302.1538,8.2336e-05,1.022e-05,0.0,0 STARLINK-3400,1 51128U 22005AA  22264.28458566  .00001022  00000-0  82336-4 0  9997,2 51128  53.2165 219.7599 0001844  57.9633 302.1538 15.08839753 38814,6917.880999999999,95.438,541.0219999999998,538.47,0.0
51128.0,STARLINK-3400,PAYLOAD,2022-09-21 14:46:44,15.08837203,0.0001867,53.2162,218.2733,57.6682,302.4491,2.875e-05,1.69e-06,0.0,0 STARLINK-3400,1 51128U 22005AA  22264.61578898  .00000169  00000-0  28750-4 0  9996,2 51128  53.2162 218.2733 0001867  57.6682 302.4491 15.08837203 38865,6917.889,95.438,541.0459999999998,538.462,0.0
51128.0,STARLINK-3400,PAYLOAD,2022-09-23 03:20:36,15.088321300000002,0.0001906,53.2171,211.4342,45.8785,314.2363,2.0929e-05,4.5e-07,0.0,0 STARLINK-3400,1 51128U 22005AA  22266.13931170  .00000045  00000-0  20929-4 0  9994,2 51128  53.2171 211.4342 0001906  45.8785 314.2363 15.08832130 39092,6917.904,95.438,541.0880000000002,538.451,0.0
51128.0,STARLINK-3400,PAYLOAD,2022-09-23 12:52:55,15.08830281,0.0001662,53.2165,209.651,51.9265,308.1877,4.0039e-07,-2.82e-06,0.0,0 STARLINK-3400,1 51128U 22005AA  22266.53675518 -.00000282  00000-0  40039-6 0  9999,2 51128  53.2165 209.6510 0001662  51.9265 308.1877 15.08830281 38031,6917.91,95.438,540.925,538.625,0.0
51128.0,STARLINK-3400,PAYLOAD,2022-09-23 19:14:28,15.08833777,0.0001743,53.2165,208.4613,53.6487,306.4666,5.7031e-05,6.2e-06,0.0,0 STARLINK-3400,1 51128U 22005AA  22266.80171334  .00000620  00000-0  57031-4 0  9999,2 51128  53.2165 208.4613 0001743  53.6487 306.4666 15.08833777 38071,6917.899,95.438,540.97,538.559,0.0
51128.0,STARLINK-3400,PAYLOAD,2022-09-24 03:11:22,15.08822309,0.0001747,53.2166,206.9743,62.845,297.272,0.00032267,4.849e-05,0.0,0 STARLINK-3400,1 51128U 22005AA  22267.13290172  .00004849  00000-0  32267-3 0  9998,2 51128  53.2166 206.9743 0001747  62.8450 297.2720 15.08822309 39242,6917.934,95.439,541.008,538.591,0.0
51128.0,STARLINK-3400,PAYLOAD,2022-09-24 12:43:42,15.08853154,0.0001749,53.2167,205.19,56.975,303.141,1.5146e-05,-4.7e-07,0.0,0 STARLINK-3400,1 51128U 22005AA  22267.53034811 -.00000047  00000-0  15146-4 0  9993,2 51128  53.2167 205.1900 0001749  56.9750 303.1410 15.08853154 38185,6917.84,95.437,540.915,538.495,0.0
51128.0,STARLINK-3400,PAYLOAD,2022-09-24 19:05:14,15.08847737,0.0001759,53.216,204.0004,56.8395,303.2766,-2.8635e-05,-7.44e-06,0.0,0 STARLINK-3400,1 51128U 22005AA  22267.79530703 -.00000744  00000-0 -28635-4 0  9994,2 51128  53.2160 204.0004 0001759  56.8395 303.2766 15.08847737 38226,6917.857,95.437,540.939,538.505,0.0
51128.0,STARLINK-3400,PAYLOAD,2022-09-25 07:48:19,15.08845486,0.0001678,53.216,201.6215,56.878,303.2373,0.00013069,1.793e-05,0.0,0 STARLINK-3400,1 51128U 22005AA  22268.32522662  .00001793  00000-0  13069-3 0  9996,2 51128  53.2160 201.6215 0001678  56.8780 303.2373 15.08845486 38303,6917.864000000001,95.437,540.889,538.568,0.0
51128.0,STARLINK-3400,PAYLOAD,2022-09-25 18:56:02,15.08832086,0.0001706,53.216,199.5402,55.6093,304.506,-3.662300000000001e-05,-8.71e-06,0.0,0 STARLINK-3400,1 51128U 22005AA  22268.78891322 -.00000871  00000-0 -36623-4 0  9998,2 51128  53.2160 199.5402 0001706  55.6093 304.5060 15.08832086 39492,6917.905,95.438,540.95,538.589,0.0
51128.0,STARLINK-3400,PAYLOAD,2022-09-25 20:31:25,15.08832296,0.0001732,53.216,199.2428,55.3326,304.7829,-5.96e-05,-1.236e-05,0.0,0 STARLINK-3400,1 51128U 22005AA  22268.85515305 -.00001236  00000-0 -59600-4 0  9996,2 51128  53.2160 199.2428 0001732  55.3326 304.7829 15.08832296 38387,6917.904,95.438,540.967,538.571,0.0
51128.0,STARLINK-3400,PAYLOAD,2022-09-26 07:39:06,15.08847237,0.0001689,53.2166,197.1614,54.6307,305.4843,-8.995e-05,-1.7199999999999998e-05,0.0,0 STARLINK-3400,1 51128U 22005AA  22269.31883044 -.00001720  00000-0 -89950-4 0  9995,2 51128  53.2166 197.1614 0001689  54.6307 305.4843 15.08847237 39576,6917.858,95.437,540.8919999999998,538.555,0.0
51128.0,STARLINK-3400,PAYLOAD,2022-09-26 12:25:16,15.08837066,0.0001701,53.2167,196.2693,55.6602,304.4551,-5.5402e-05,-1.17e-05,0.0,0 STARLINK-3400,1 51128U 22005AA  22269.51755676 -.00001170  00000-0 -55402-4 0  9990,2 51128  53.2167 196.2693 0001701  55.6602 304.4551 15.08837066 38481,6917.889,95.438,540.931,538.578,0.0
51128.0,STARLINK-3400,PAYLOAD,2022-09-26 18:46:49,15.08830908,0.0001686999999999,53.2166,195.08,55.8144,304.3008,-5.5905e-05,-1.177e-05,0.0,0 STARLINK-3400,1 51128U 22005AA  22269.78252142 -.00001177  00000-0 -55905-4 0  9994,2 51128  53.2166 195.0800 0001687  55.8144 304.3008 15.08830908 39646,6917.908,95.438,540.94,538.606,0.0
51128.0,STARLINK-3400,PAYLOAD,2022-09-26 20:22:12,15.08830634,0.0001683,53.2166,194.7825,55.651,304.4641,-3.7185e-05,-8.8e-06,0.0,0 STARLINK-3400,1 51128U 22005AA  22269.84876135 -.00000880  00000-0 -37185-4 0  9995,2 51128  53.2166 194.7825 0001683  55.6510 304.4641 15.08830634 38537,6917.909000000002,95.438,540.938,538.61,0.0
51128.0,STARLINK-3400,PAYLOAD,2022-09-27 04:19:08,15.08838725,0.0001693,53.2167,193.2957,55.1415,304.9736,1.3047e-07,-2.86e-06,0.0,0 STARLINK-3400,1 51128U 22005AA  22270.17995662 -.00000286  00000-0  13047-6 0  9992,2 51128  53.2167 193.2957 0001693  55.1415 304.9736 15.08838725 39707,6917.884,95.438,540.92,538.578,0.0
